[
  {
    "name": "ONEWEB-0689",
    "noradId": "61597",
    "line1": "1 61597U 24188D   26156.05959154 -.00000104  00000+0 -32944-3 0  9990",
    "line2": "2 61597  87.8909  23.4637 0001900  91.6112 268.5233 13.11419632 82860"
  },
  {
    "name": "ONEWEB-0690",
    "noradId": "61598",
    "line1": "1 61598U 24188E   26155.15421358  .00000425  00000+0  11635-2 0  9998",
    "line2": "2 61598  87.8912  23.6550 0001610  58.7372 301.3914 13.11419090 82928"
  },
  {
    "name": "ONEWEB-0691",
    "noradId": "61599",
    "line1": "1 61599U 24188F   26156.06468560  .00000136  00000+0  34665-3 0  9994",
    "line2": "2 61599  87.8919  23.3821 0002179  83.4429 276.6947 13.11417832 82891"
  },
  {
    "name": "ONEWEB-0692",
    "noradId": "61600",
    "line1": "1 61600U 24188G   26156.00874200  .00000492  00000+0  13535-2 0  9990",
    "line2": "2 61600  87.8888  23.5079 0002339  71.6895 288.4487 13.11415061 82870"
  },
  {
    "name": "ONEWEB-0693",
    "noradId": "61601",
    "line1": "1 61601U 24188H   26155.96960763  .00000041  00000+0  71346-4 0  9991",
    "line2": "2 61601  87.9133   8.3277 0001700  61.1838 298.9464 13.17651642 84278"
  },
  {
    "name": "ONEWEB-0695",
    "noradId": "61602",
    "line1": "1 61602U 24188J   26156.06128400 -.00000025  00000+0 -10649-3 0  9990",
    "line2": "2 61602  87.8901  23.4906 0001764 102.5229 257.6097 13.11418857 82873"
  },
  {
    "name": "ONEWEB-0697",
    "noradId": "61603",
    "line1": "1 61603U 24188K   26155.17794284  .00000245  00000+0  65644-3 0  9998",
    "line2": "2 61603  87.8894  23.6567 0001279 108.3101 251.8167 13.11415815 82745"
  },
  {
    "name": "ONEWEB-0698",
    "noradId": "61604",
    "line1": "1 61604U 24188L   26155.99516464  .00000285  00000+0  76857-3 0  9993",
    "line2": "2 61604  87.8898  23.5079 0000642  66.2255 293.8941 13.11418825 82876"
  },
  {
    "name": "ONEWEB-0699",
    "noradId": "61605",
    "line1": "1 61605U 24188M   26155.69287274 -.00000481  00000+0 -14137-2 0  9997",
    "line2": "2 61605  87.8840  38.7538 0001256  96.9694 263.1577 13.10370134 81672"
  },
  {
    "name": "ONEWEB-0700",
    "noradId": "61606",
    "line1": "1 61606U 24188N   26155.69452970 -.00000376  00000+0 -11145-2 0  9994",
    "line2": "2 61606  87.8855  38.6614 0001619 104.8665 255.2641 13.10371482 81663"
  },
  {
    "name": "ONEWEB-0701",
    "noradId": "61607",
    "line1": "1 61607U 24188P   26155.17662659 -.00000406  00000+0 -11986-2 0  9992",
    "line2": "2 61607  87.8855  38.8552 0001098  98.2372 261.8880 13.10376913 81605"
  },
  {
    "name": "ONEWEB-0702",
    "noradId": "61608",
    "line1": "1 61608U 24188Q   26156.04094256 -.00000453  00000+0 -13136-2 0  9993",
    "line2": "2 61608  87.8913  23.4017 0001332 110.4521 249.6750 13.11417983 82897"
  },
  {
    "name": "ONEWEB-0704",
    "noradId": "61609",
    "line1": "1 61609U 24188R   26155.69951127 -.00000679  00000+0 -19807-2 0  9994",
    "line2": "2 61609  87.8853  38.7402 0001652 114.6545 245.4755 13.10372712 81656"
  },
  {
    "name": "ONEWEB-0705",
    "noradId": "61610",
    "line1": "1 61610U 24188S   26155.16997931 -.00000629  00000+0 -18388-2 0  9999",
    "line2": "2 61610  87.8854  38.8515 0002406 106.0438 254.0955 13.10373663 73755"
  },
  {
    "name": "ONEWEB-0706",
    "noradId": "61611",
    "line1": "1 61611U 24188T   26155.68955492 -.00000223  00000+0 -67417-3 0  9991",
    "line2": "2 61611  87.8839  38.7545 0001754  99.2712 260.8613 13.10370784 81749"
  },
  {
    "name": "ONEWEB-0707",
    "noradId": "61612",
    "line1": "1 61612U 24188U   26155.69618953 -.00000551  00000+0 -16150-2 0  9992",
    "line2": "2 61612  87.8850  38.7480 0001769 111.4446 248.6870 13.10370528 81686"
  },
  {
    "name": "ONEWEB-0708",
    "noradId": "61613",
    "line1": "1 61613U 24188V   26155.71445142 -.00000438  00000+0 -12919-2 0  9997",
    "line2": "2 61613  87.8852  38.7616 0002299  90.7035 269.4356 13.10376414 81660"
  }
]